NORAD_CAT_ID,OBJECT_NAME,OBJECT_TYPE,EPOCH,MEAN_MOTION,ECCENTRICITY,INCLINATION,RA_OF_ASC_NODE,ARG_OF_PERICENTER,MEAN_ANOMALY,BSTAR,MEAN_MOTION_DOT,MEAN_MOTION_DDOT,TLE_LINE0,TLE_LINE1,TLE_LINE2,SEMIMAJOR_AXIS,PERIOD,APOGEE,PERIGEE,DECAYED
54191.0,STARLINK-4619,PAYLOAD,2023-04-08 10:01:08,15.0884711,0.000135,53.2175,101.0396,99.717,260.3975,4.8339e-05,4.82e-06,0.0,0 STARLINK-4619,1 54191U 22141AL  23098.41745580  .00000482  00000-0  48339-4 0  9991,2 54191  53.2175 101.0396 0001350  99.7170 260.3975 15.08847110 25258,6917.859,95.437,540.658,538.79,0.0
54191.0,STARLINK-4619,PAYLOAD,2023-04-08 11:36:31,15.0884866,0.0001376,53.2177,100.7425,99.6657,260.4491,6.815e-05,7.97e-06,0.0,0 STARLINK-4619,1 54191U 22141AL  23098.48369405  .00000797  00000-0  68150-4 0  9998,2 54191  53.2177 100.7425 0001376  99.6657 260.4491 15.08848660 25037,6917.854,95.437,540.671,538.767,0.0
54191.0,STARLINK-4619,PAYLOAD,2023-04-09 11:27:18,15.08842706,0.0001352,53.2178,96.2842,86.1204,273.9942,3.019e-05,1.93e-06,0.0,0 STARLINK-4619,1 54191U 22141AL  23099.47730076  .00000193  00000-0  30190-4 0  9997,2 54191  53.2178  96.2842 0001352  86.1204 273.9942 15.08842706 25410,6917.872,95.437,540.672,538.802,0.0
54191.0,STARLINK-4619,PAYLOAD,2023-04-09 16:13:28,15.08831121,0.0001215,53.2181,95.3899,102.1169,257.9959,-5.4328e-05,-1.152e-05,0.0,0 STARLINK-4619,1 54191U 22141AL  23099.67602919 -.00001152  00000-0 -54328-4 0  9990,2 54191  53.2181  95.3899 0001215 102.1169 257.9959 15.08831121 25445,6917.908,95.438,540.613,538.932,0.0
54191.0,STARLINK-4619,PAYLOAD,2023-04-10 11:18:05,15.08844356,0.0001258,53.2176,91.8225,94.5917,265.5219,2.9825e-05,1.87e-06,0.0,0 STARLINK-4619,1 54191U 22141AL  23100.47090168  .00000187  00000-0  29825-4 0  9997,2 54191  53.2176  91.8225 0001258  94.5917 265.5219 15.08844356 25566,6917.867,95.437,540.602,538.862,0.0
54191.0,STARLINK-4619,PAYLOAD,2023-04-11 04:47:20,15.08839198,0.0001215,53.2175,88.5513,96.9824,263.1306,5.5044e-05,5.88e-06,0.0,0 STARLINK-4619,1 54191U 22141AL  23101.19954653  .00000588  00000-0  55044-4 0  9992,2 54191  53.2175  88.5513 0001215  96.9824 263.1306 15.08839198 25675,6917.883,95.438,540.588,538.907,0.0
54191.0,STARLINK-4619,PAYLOAD,2023-04-11 09:33:29,15.0884545,0.0001229,53.2175,87.6591,96.3806,263.7326,0.00010867,1.442e-05,0.0,0 STARLINK-4619,1 54191U 22141AL  23101.39826161  .00001442  00000-0  10867-3 0  9999,2 54191  53.2175  87.6591 0001229  96.3806 263.7326 15.08845450 25474,6917.864,95.437,540.579,538.879,0.0
54191.0,STARLINK-4619,PAYLOAD,2023-04-12 04:38:08,15.08835184,0.0001281,53.218,84.0911,102.735,257.3786,5.3617e-05,5.65e-06,0.0,0 STARLINK-4619,1 54191U 22141AL  23102.19315250  .00000565  00000-0  53617-4 0  9996,2 54191  53.2180  84.0911 0001281 102.7350 257.3786 15.08835184 25822,6917.895,95.438,540.646,538.874,0.0
54191.0,STARLINK-4619,PAYLOAD,2023-04-12 06:13:31,15.08833023,0.0001505,53.2179,83.7944,104.7251,255.3908,9.8843e-05,1.285e-05,0.0,0 STARLINK-4619,1 54191U 22141AL  23102.25939359  .00001285  00000-0  98843-4 0  9995,2 54191  53.2179  83.7944 0001505 104.7251 255.3908 15.08833023 25603,6917.902,95.438,540.808,538.726,0.0
54191.0,STARLINK-4619,PAYLOAD,2023-04-13 07:39:41,15.08843746,0.0001215,53.2169,79.0358,92.2233,267.8898,6.9385e-05,8.17e-06,0.0,0 STARLINK-4619,1 54191U 22141AL  23103.31922761  .00000817  00000-0  69385-4 0  9991,2 54191  53.2169  79.0358 0001215  92.2233 267.8898 15.08843746 25764,6917.869,95.437,540.574,538.893,0.0
54191.0,STARLINK-4619,PAYLOAD,2023-04-14 04:19:42,15.08840776,0.000109,53.2158,75.1709,90.9432,269.1685,0.0001462,2.04e-05,0.0,0 STARLINK-4619,1 54191U 22141AL  23104.18035137  .00002040  00000-0  14620-3 0  9990,2 54191  53.2158  75.1709 0001090  90.9432 269.1685 15.08840776 25899,6917.878,95.438,540.497,538.989,0.0
54191.0,STARLINK-4619,PAYLOAD,2023-04-15 04:10:28,15.08854122,0.0001139,53.2175,70.7095,99.5788,260.5333,0.00021597,3.152e-05,0.0,0 STARLINK-4619,1 54191U 22141AL  23105.17394407  .00003152  00000-0  21597-3 0  9994,2 54191  53.2175  70.7095 0001139  99.5788 260.5333 15.08854122 26278,6917.837,95.437,540.49,538.914,0.0
54191.0,STARLINK-4619,PAYLOAD,2023-04-15 21:39:43,15.08839927,0.0001146,53.2175,67.4391,89.9302,270.1822,7.9232e-05,9.73e-06,0.0,0 STARLINK-4619,1 54191U 22141AL  23105.90259199  .00000973  00000-0  79232-4 0  9991,2 54191  53.2175  67.4391 0001146  89.9302 270.1822 15.08839927 26156,6917.881,95.438,540.538,538.953,0.0
54191.0,STARLINK-4619,PAYLOAD,2023-04-16 02:25:53,15.08837188,0.0001069,53.2177,66.5468,95.1568,264.9546,4.4706e-05,4.24e-06,0.0,0 STARLINK-4619,1 54191U 22141AL  23106.10131284  .00000424  00000-0  44706-4 0  9997,2 54191  53.2177  66.5468 0001069  95.1568 264.9546 15.08837188 26410,6917.889,95.438,540.494,539.014,0.0
54191.0,STARLINK-4619,PAYLOAD,2023-04-16 21:30:31,15.08837746,0.0001065,53.2177,62.9782,93.8219,266.2895,3.6171e-05,2.88e-06,0.0,0 STARLINK-4619,1 54191U 22141AL  23106.89619474  .00000288  00000-0  36171-4 0  9990,2 54191  53.2177  62.9782 0001065  93.8219 266.2895 15.08837746 26303,6917.887,95.438,540.489,539.016,0.0
54191.0,STARLINK-4619,PAYLOAD,2023-04-17 07:02:49,15.08847316,0.0001063,53.2176,61.1951,92.5208,267.5906,0.00018068,2.589e-05,0.0,0 STARLINK-4619,1 54191U 22141AL  23107.29363021  .00002589  00000-0  18068-3 0  9999,2 54191  53.2176  61.1951 0001063  92.5208 267.5906 15.08847316 26360,6917.858,95.437,540.458,538.988,0.0
54191.0,STARLINK-4619,PAYLOAD,2023-04-18 05:18:13,15.08848581,0.0001118,53.2178,57.0313,74.1643,285.9473,0.00025368,3.753e-05,0.0,0 STARLINK-4619,1 54191U 22141AL  23108.22099010  .00003753  00000-0  25368-3 0  9992,2 54191  53.2178  57.0313 0001118  74.1643 285.9473 15.08848581 26737,6917.854,95.437,540.493,538.946,0.0
54191.0,STARLINK-4619,PAYLOAD,2023-04-19 03:33:37,15.08843784,8.58e-05,53.2184,52.8689,94.979,265.13,7.3676e-05,8.85e-06,0.0,0 STARLINK-4619,1 54191U 22141AL  23109.14835241  .00000885  00000-0  73676-4 0  9997,2 54191  53.2184  52.8689 0000858  94.9790 265.1300 15.08843784 26870,6917.869,95.437,540.327,539.14,0.0
54191.0,STARLINK-4619,PAYLOAD,2023-04-19 06:44:23,15.08847436,0.0001111,53.2191,52.2754,93.0965,267.0155,0.00014048,1.949e-05,0.0,0 STARLINK-4619,1 54191U 22141AL  23109.28083212  .00001949  00000-0  14048-3 0  9994,2 54191  53.2191  52.2754 0001111  93.0965 267.0155 15.08847436 26666,6917.858,95.437,540.491,538.954,0.0
54191.0,STARLINK-4619,PAYLOAD,2023-04-20 04:59:47,15.08842033,0.0001114,53.2172,48.1103,96.4003,263.7116,7.9167e-05,9.72e-06,0.0,0 STARLINK-4619,1 54191U 22141AL  23110.20819426  .00000972  00000-0  79167-4 0  9991,2 54191  53.2172  48.1103 0001114  96.4003 263.7116 15.08842033 26804,6917.874,95.437,540.51,538.969,0.0
54191.0,STARLINK-4619,PAYLOAD,2023-04-21 12:47:31,15.08835709,0.0001104,53.2178,42.1639,97.8105,262.3013,0.00018077,2.59e-05,0.0,0 STARLINK-4619,1 54191U 22141AL  23111.53300630  .00002590  00000-0  18077-3 0  9990,2 54191  53.2178  42.1639 0001104  97.8105 262.3013 15.08835709 27001,6917.894,95.438,540.522,538.995,0.0
54191.0,STARLINK-4619,PAYLOAD,2023-04-22 04:41:22,15.08853512,0.0001122,53.2167,39.1924,79.2269,280.8849,0.00041568,6.336e-05,0.0,0 STARLINK-4619,1 54191U 22141AL  23112.19540130  .00006336  00000-0  41568-3 0  9997,2 54191  53.2167  39.1924 0001122  79.2269 280.8849 15.08853512 27102,6917.839,95.437,540.48,538.928,0.0
54191.0,STARLINK-4619,PAYLOAD,2023-04-23 01:21:23,15.08852614,9.74e-05,53.2169,35.3262,82.9101,277.2002,0.00021919,3.204e-05,0.0,0 STARLINK-4619,1 54191U 22141AL  23113.05651689  .00003204  00000-0  21919-3 0  9994,2 54191  53.2169  35.3262 0000974  82.9101 277.2002 15.08852614 27469,6917.842,95.437,540.381,539.033,0.0
54191.0,STARLINK-4619,PAYLOAD,2023-04-24 02:47:32,15.08862312,0.0001084,53.2182,30.5665,100.6652,259.4462,0.00030355,4.549e-05,0.0,0 STARLINK-4619,1 54191U 22141AL  23114.11634862  .00004549  00000-0  30355-3 0  9993,2 54191  53.2182  30.5665 0001084 100.6652 259.4462 15.08862312 27626,6917.812,95.436,540.427,538.927,0.0
54191.0,STARLINK-4619,PAYLOAD,2023-04-24 05:58:18,15.08885759,0.0001309,53.2175,29.9746,71.6474,288.466,0.00081015,0.00012645,0.0,0 STARLINK-4619,1 54191U 22141AL  23114.24882130  .00012645  00000-0  81015-3 0  9995,2 54191  53.2175  29.9746 0001309  71.6474 288.4660 15.08885759 27418,6917.741,95.435,540.511,538.7,0.0
54191.0,STARLINK-4619,PAYLOAD,2023-04-25 04:13:40,15.08911788,0.0001164,53.2174,25.8104,101.7066,258.4057,0.0019428,0.00030828,0.0,0 STARLINK-4619,1 54191U 22141AL  23115.17616157  .00030828  00000-0  19428-2 0  9993,2 54191  53.2174  25.8104 0001164 101.7066 258.4057 15.08911788 27780,6917.661,95.433,540.331,538.721,0.0
54191.0,STARLINK-4619,PAYLOAD,2023-04-25 05:49:03,15.08915879,0.0001166,53.2174,25.5131,102.7529,257.3594,0.0019352,0.00030709,0.0,0 STARLINK-4619,1 54191U 22141AL  23115.24239831  .00030709  00000-0  19352-2 0  9995,2 54191  53.2174  25.5131 0001166 102.7529 257.3594 15.08915879 27569,6917.648,95.433,540.32,538.707,0.0
54191.0,STARLINK-4619,PAYLOAD,2023-04-26 12:01:28,15.0879533,0.000109,53.2167,19.8639,97.3079,262.8037,0.0026197,0.000416,0.0,0 STARLINK-4619,1 54191U 22141AL  23116.50102055  .00041600  00000-0  26197-2 0  9999,2 54191  53.2167  19.8639 0001090  97.3079 262.8037 15.08795330 27757,6918.017,95.44,540.636,539.128,0.0
54191.0,STARLINK-4619,PAYLOAD,2023-04-26 21:33:47,15.08823397,0.0001042,53.2164,18.0798,88.6832,271.4279,0.0015987,0.00025235,0.0,0 STARLINK-4619,1 54191U 22141AL  23116.89846579  .00025235  00000-0  15987-2 0  9998,2 54191  53.2164  18.0798 0001042  88.6832 271.4279 15.08823397 27814,6917.931,95.439,540.517,539.075,0.0
54191.0,STARLINK-4619,PAYLOAD,2023-04-27 00:44:33,15.08831982,0.0001035,53.2164,17.4853,89.166,270.9451,0.0014297,0.00022534,0.0,0 STARLINK-4619,1 54191U 22141AL  23117.03094640  .00022534  00000-0  14297-2 0  9991,2 54191  53.2164  17.4853 0001035  89.1660 270.9451 15.08831982 28069,6917.905,95.438,540.486,539.054,0.0
